{
  "type": "FeatureCollection",
  "features": [
    {
      "type": "Feature",
      "properties": {
        "norad_id": 58647,
        "name": "TIANMU-1 13",
        "group": "weather",
        "lat": 30.855696281851138,
        "lon": 1.6885341442277828,
        "alt_km": 492.8913358972168,
        "timestamp": "2025-12-12T11:38:31.059599+00:00",
        "meta_object_name": "TIANMU-1 13",
        "meta_object_id": "2023-205C",
        "meta_epoch": "2025-12-12T03:37:45.645600",
        "meta_mean_motion": 15.24513447,
        "meta_eccentricity": 0.000606,
        "meta_inclination": 97.3627,
        "meta_ra_of_asc_node": 5.7911,
        "meta_arg_of_pericenter": 269.7688,
        "meta_mean_anomaly": 90.2855,
        "meta_ephemeris_type": 0,
        "meta_classification_type": "U",
        "meta_norad_cat_id": 58647,
        "meta_element_set_no": 999,
        "meta_rev_at_epoch": 10898,
        "meta_bstar": 0.0004057,
        "meta_mean_motion_dot": 9.916e-05,
        "meta_mean_motion_ddot": 0,
        "tle_line1": "1 58647U 23205C   25346.15122275  .00009916  00000+0  40570-3 0  9990",
        "tle_line2": "2 58647  97.3627   5.7911 0006060 269.7688  90.2855 15.24513447108988"
      },
      "geometry": {
        "type": "Point",
        "coordinates": [
          1.6885341442277828,
          30.855696281851138
        ]
      }
    },
    {
      "type": "Feature",
      "properties": {
        "norad_id": 58648,
        "name": "TIANMU-1 14",
        "group": "weather",
        "lat": 56.99579423020262,
        "lon": -163.0593155760287,
        "alt_km": 491.00005039878397,
        "timestamp": "2025-12-12T11:38:31.059608+00:00",
        "meta_object_name": "TIANMU-1 14",
        "meta_object_id": "2023-205D",
        "meta_epoch": "2025-12-12T04:48:21.849696",
        "meta_mean_motion": 15.24498722,
        "meta_eccentricity": 0.0006854,
        "meta_inclination": 97.356,
        "meta_ra_of_asc_node": 5.1885,
        "meta_arg_of_pericenter": 275.0598,
        "meta_mean_anomaly": 84.9857,
        "meta_ephemeris_type": 0,
        "meta_classification_type": "U",
        "meta_norad_cat_id": 58648,
        "meta_element_set_no": 999,
        "meta_rev_at_epoch": 10899,
        "meta_bstar": 0.00041097,
        "meta_mean_motion_dot": 0.00010043,
        "meta_mean_motion_ddot": 0,
        "tle_line1": "1 58648U 23205D   25346.20025289  .00010043  00000+0  41097-3 0  9992",
        "tle_line2": "2 58648  97.3560   5.1885 0006854 275.0598  84.9857 15.24498722108991"
      },
      "geometry": {
        "type": "Point",
        "coordinates": [
          -163.0593155760287,
          56.99579423020262
        ]
      }
    },
    {
      "type": "Feature",
      "properties": {
        "norad_id": 58660,
        "name": "TIANMU-1 19",
        "group": "weather",
        "lat": 13.895593442051851,
        "lon": 95.67009531242543,
        "alt_km": 484.76900345001286,
        "timestamp": "2025-12-12T11:38:31.059618+00:00",
        "meta_object_name": "TIANMU-1 19",
        "meta_object_id": "2023-208A",
        "meta_epoch": "2025-12-12T05:17:36.048768",
        "meta_mean_motion": 15.27835386,
        "meta_eccentricity": 0.0004085,
        "meta_inclination": 97.4384,
        "meta_ra_of_asc_node": 97.2584,
        "meta_arg_of_pericenter": 255.3869,
        "meta_mean_anomaly": 104.6918,
        "meta_ephemeris_type": 0,
        "meta_classification_type": "U",
        "meta_norad_cat_id": 58660,
        "meta_element_set_no": 999,
        "meta_rev_at_epoch": 10874,
        "meta_bstar": 0.00050195,
        "meta_mean_motion_dot": 0.00013582,
        "meta_mean_motion_ddot": 0,
        "tle_line1": "1 58660U 23208A   25346.22055612  .00013582  00000+0  50195-3 0  9994",
        "tle_line2": "2 58660  97.4384  97.2584 0004085 255.3869 104.6918 15.27835386108749"
      },
      "geometry": {
        "type": "Point",
        "coordinates": [
          95.67009531242543,
          13.895593442051851
        ]
      }
    },
    {
      "type": "Feature",
      "properties": {
        "norad_id": 58661,
        "name": "TIANMU-1 20",
        "group": "weather",
        "lat": 82.06659113538777,
        "lon": 28.458190803592686,
        "alt_km": 475.5886284627777,
        "timestamp": "2025-12-12T11:38:31.059628+00:00",
        "meta_object_name": "TIANMU-1 20",
        "meta_object_id": "2023-208B",
        "meta_epoch": "2025-12-12T03:24:30.266208",
        "meta_mean_motion": 15.29022987,
        "meta_eccentricity": 0.0006325,
        "meta_inclination": 97.4322,
        "meta_ra_of_asc_node": 97.6271,
        "meta_arg_of_pericenter": 268.5681,
        "meta_mean_anomaly": 91.4835,
        "meta_ephemeris_type": 0,
        "meta_classification_type": "U",
        "meta_norad_cat_id": 58661,
        "meta_element_set_no": 999,
        "meta_rev_at_epoch": 10880,
        "meta_bstar": 0.00049523,
        "meta_mean_motion_dot": 0.00013899,
        "meta_mean_motion_ddot": 0,
        "tle_line1": "1 58661U 23208B   25346.14201697  .00013899  00000+0  49523-3 0  9996",
        "tle_line2": "2 58661  97.4322  97.6271 0006325 268.5681  91.4835 15.29022987108801"
      },
      "geometry": {
        "type": "Point",
        "coordinates": [
          28.458190803592686,
          82.06659113538777
        ]
      }
    },
    {
      "type": "Feature",
      "properties": {
        "norad_id": 58662,
        "name": "TIANMU-1 21",
        "group": "weather",
        "lat": 82.5490280926028,
        "lon": 12.676038813410583,
        "alt_km": 467.7468067159325,
        "timestamp": "2025-12-12T11:38:31.059638+00:00",
        "meta_object_name": "TIANMU-1 21",
        "meta_object_id": "2023-208C",
        "meta_epoch": "2025-12-12T04:58:46.106112",
        "meta_mean_motion": 15.31533176,
        "meta_eccentricity": 0.0005907,
        "meta_inclination": 97.437,
        "meta_ra_of_asc_node": 99.5985,
        "meta_arg_of_pericenter": 262.3895,
        "meta_mean_anomaly": 97.6675,
        "meta_ephemeris_type": 0,
        "meta_classification_type": "U",
        "meta_norad_cat_id": 58662,
        "meta_element_set_no": 999,
        "meta_rev_at_epoch": 10891,
        "meta_bstar": 0.00054906,
        "meta_mean_motion_dot": 0.00016667,
        "meta_mean_motion_ddot": 0,
        "tle_line1": "1 58662U 23208C   25346.20747808  .00016667  00000+0  54906-3 0  9990",
        "tle_line2": "2 58662  97.4370  99.5985 0005907 262.3895  97.6675 15.31533176108914"
      },
      "geometry": {
        "type": "Point",
        "coordinates": [
          12.676038813410583,
          82.5490280926028
        ]
      }
    },
    {
      "type": "Feature",
      "properties": {
        "norad_id": 58663,
        "name": "TIANMU-1 22",
        "group": "weather",
        "lat": 15.303815554433896,
        "lon": 95.53280008368269,
        "alt_km": 483.78968230623923,
        "timestamp": "2025-12-12T11:38:31.059648+00:00",
        "meta_object_name": "TIANMU-1 22",
        "meta_object_id": "2023-208D",
        "meta_epoch": "2025-12-12T03:42:50.550336",
        "meta_mean_motion": 15.2758859,
        "meta_eccentricity": 0.0002694,
        "meta_inclination": 97.4377,
        "meta_ra_of_asc_node": 97.252,
        "meta_arg_of_pericenter": 290.1606,
        "meta_mean_anomaly": 69.9344,
        "meta_ephemeris_type": 0,
        "meta_classification_type": "U",
        "meta_norad_cat_id": 58663,
        "meta_element_set_no": 999,
        "meta_rev_at_epoch": 10874,
        "meta_bstar": 0.00046217,
        "meta_mean_motion_dot": 0.00012403,
        "meta_mean_motion_ddot": 0,
        "tle_line1": "1 58663U 23208D   25346.15475174  .00012403  00000+0  46217-3 0  9999",
        "tle_line2": "2 58663  97.4377  97.2520 0002694 290.1606  69.9344 15.27588590108742"
      },
      "geometry": {
        "type": "Point",
        "coordinates": [
          95.53280008368269,
          15.303815554433896
        ]
      }
    },
    {
      "type": "Feature",
      "properties": {
        "norad_id": 58700,
        "name": "TIANMU-1 15",
        "group": "weather",
        "lat": 31.905617538579605,
        "lon": -7.362883745793063,
        "alt_km": 493.10600982211963,
        "timestamp": "2025-12-12T11:38:31.059658+00:00",
        "meta_object_name": "TIANMU-1 15",
        "meta_object_id": "2024-004A",
        "meta_epoch": "2025-12-11T12:56:40.540704",
        "meta_mean_motion": 15.24670451,
        "meta_eccentricity": 0.00052437,
        "meta_inclination": 97.4631,
        "meta_ra_of_asc_node": 167.0136,
        "meta_arg_of_pericenter": 303.7498,
        "meta_mean_anomaly": 56.324,
        "meta_ephemeris_type": 0,
        "meta_classification_type": "U",
        "meta_norad_cat_id": 58700,
        "meta_element_set_no": 999,
        "meta_rev_at_epoch": 10716,
        "meta_bstar": 0.00086402607,
        "meta_mean_motion_dot": 0.00021326,
        "meta_mean_motion_ddot": 0,
        "tle_line1": "1 58700U 24004A   25345.53935811  .00021326  00000+0  86403-3 0  9991",
        "tle_line2": "2 58700  97.4631 167.0136 0005243 303.7498  56.3240 15.24670451107164"
      },
      "geometry": {
        "type": "Point",
        "coordinates": [
          -7.362883745793063,
          31.905617538579605
        ]
      }
    }
  ]
}